NSS-806                 
1 25239U 98014A   17345.76434851 -.00000285  00000-0  00000+0 0  9996
2 25239   0.0589 336.5498 0004535 288.3455  43.4322  1.00273631 72476
